{"type": "FeatureCollection", "features": [ {"type": "Feature", "properties": {"norad_id": 40792, "name": "COSMOS 2251 DEB", "group": "cosmos-2251-debris", "lat": 14.54153429039314, "lon": -130.3637760276649, "alt_km": 658.5084293707969, "timestamp": "2025-12-09T09:46:48.044219+00:00", "meta": {"OBJECT_NAME": "COSMOS 2251 DEB", "OBJECT_ID": "1993-036BVV", "EPOCH": "2025-12-08T11:49:11.388288", "MEAN_MOTION": 14.67495133, "ECCENTRICITY": 0.00157828, "INCLINATION": 74.0463, "RA_OF_ASC_NODE": 55.6567, "ARG_OF_PERICENTER": 162.447, "MEAN_ANOMALY": 210.2984, "EPHEMERIS_TYPE": 0, "CLASSIFICATION_TYPE": "U", "NORAD_CAT_ID": 40792, "ELEMENT_SET_NO": 999, "REV_AT_EPOCH": 63122, "BSTAR": 0.0015277322, "MEAN_MOTION_DOT": 8.654e-05, "MEAN_MOTION_DDOT": 0}, "tle": {"line1": "1 40792U 93036BVV 25342.49249292  .00008654  00000+0  15277-2 0  9996", "line2": "2 40792  74.0463  55.6567 0015782 162.4470 210.2984 14.67495133631222"}}, "geometry": {"type": "Point", "coordinates": [-130.3637760276649, 14.54153429039314]}}, {"type": "Feature", "properties": {"norad_id": 40793, "name": "COSMOS 2251 DEB", "group": "cosmos-2251-debris", "lat": 36.07237944780801, "lon": -21.1111073935644, "alt_km": 1026.1937633096768, "timestamp": "2025-12-09T09:46:48.044230+00:00", "meta": {"OBJECT_NAME": "COSMOS 2251 DEB", "OBJECT_ID": "1993-036BVW", "EPOCH": "2025-11-17T22:59:08.433600", "MEAN_MOTION": 14.0559149, "ECCENTRICITY": 0.02150611, "INCLINATION": 73.9793, "RA_OF_ASC_NODE": 208.5839, "ARG_OF_PERICENTER": 10.058, "MEAN_ANOMALY": 350.4754, "EPHEMERIS_TYPE": 0, "CLASSIFICATION_TYPE": "U", "NORAD_CAT_ID": 40793, "ELEMENT_SET_NO": 999, "REV_AT_EPOCH": 67897, "BSTAR": 0.0015211732, "MEAN_MOTION_DOT": 3.024e-05, "MEAN_MOTION_DDOT": 0}, "tle": {"line1": "1 40793U 93036BVW 25321.95773650  .00003024  00000+0  15212-2 0  9990", "line2": "2 40793  73.9793 208.5839 0215061  10.0580 350.4754 14.05591490678970"}}, "geometry": {"type": "Point", "coordinates": [-21.1111073935644, 36.07237944780801]}}, {"type": "Feature", "properties": {"norad_id": 40794, "name": "COSMOS 2251 DEB", "group": "cosmos-2251-debris", "lat": -68.12962704776223, "lon": -3.305476238387668, "alt_km": 591.1184703072058, "timestamp": "2025-12-09T09:46:48.044241+00:00", "meta": {"OBJECT_NAME": "COSMOS 2251 DEB", "OBJECT_ID": "1993-036BVX", "EPOCH": "2025-11-30T04:39:36.279360", "MEAN_MOTION": 14.91253423, "ECCENTRICITY": 0.00103638, "INCLINATION": 73.9758, "RA_OF_ASC_NODE": 149.5129, "ARG_OF_PERICENTER": 264.0956, "MEAN_ANOMALY": 215.1976, "EPHEMERIS_TYPE": 0, "CLASSIFICATION_TYPE": "U", "NORAD_CAT_ID": 40794, "ELEMENT_SET_NO": 999, "REV_AT_EPOCH": 61737, "BSTAR": 0.0047311798, "MEAN_MOTION_DOT": 0.00047418, "MEAN_MOTION_DDOT": 0}, "tle": {"line1": "1 40794U 93036BVX 25334.19416990  .00047418  00000+0  47312-2 0  9993", "line2": "2 40794  73.9758 149.5129 0010363 264.0956 215.1976 14.91253423617370"}}, "geometry": {"type": "Point", "coordinates": [-3.305476238387668, -68.12962704776223]}}, {"type": "Feature", "properties": {"norad_id": 40796, "name": "COSMOS 2251 DEB", "group": "cosmos-2251-debris", "lat": 67.4566270851893, "lon": -167.53339115819145, "alt_km": 650.5503504068774, "timestamp": "2025-12-09T09:46:48.044251+00:00", "meta": {"OBJECT_NAME": "COSMOS 2251 DEB", "OBJECT_ID": "1993-036BVZ", "EPOCH": "2025-12-08T20:47:45.281184", "MEAN_MOTION": 14.81614728, "ECCENTRICITY": 0.00561381, "INCLINATION": 74.0118, "RA_OF_ASC_NODE": 149.8495, "ARG_OF_PERICENTER": 287.1313, "MEAN_ANOMALY": 142.0416, "EPHEMERIS_TYPE": 0, "CLASSIFICATION_TYPE": "U", "NORAD_CAT_ID": 40796, "ELEMENT_SET_NO": 999, "REV_AT_EPOCH": 76101, "BSTAR": 0.0013835929, "MEAN_MOTION_DOT": 0.00011161, "MEAN_MOTION_DDOT": 0}, "tle": {"line1": "1 40796U 93036BVZ 25342.86649631  .00011161  00000+0  13836-2 0  9998", "line2": "2 40796  74.0118 149.8495 0056138 287.1313 142.0416 14.81614728761012"}}, "geometry": {"type": "Point", "coordinates": [-167.53339115819145, 67.4566270851893]}}, {"type": "Feature", "properties": {"norad_id": 40797, "name": "COSMOS 2251 DEB", "group": "cosmos-2251-debris", "lat": 33.8464796395154, "lon": -88.89725924001085, "alt_km": 561.1148045210148, "timestamp": "2025-12-09T09:46:48.044262+00:00", "meta": {"OBJECT_NAME": "COSMOS 2251 DEB", "OBJECT_ID": "1993-036BWA", "EPOCH": "2025-11-19T18:43:16.602528", "MEAN_MOTION": 15.10509474, "ECCENTRICITY": 0.00703947, "INCLINATION": 73.92, "RA_OF_ASC_NODE": 143.0892, "ARG_OF_PERICENTER": 60.6639, "MEAN_ANOMALY": 300.156, "EPHEMERIS_TYPE": 0, "CLASSIFICATION_TYPE": "U", "NORAD_CAT_ID": 40797, "ELEMENT_SET_NO": 999, "REV_AT_EPOCH": 64297, "BSTAR": 0.00072810385, "MEAN_MOTION_DOT": 0.00012707, "MEAN_MOTION_DDOT": 0}, "tle": {"line1": "1 40797U 93036BWA 25323.78005327  .00012707  00000+0  72810-3 0  9992", "line2": "2 40797  73.9200 143.0892 0070394  60.6639 300.1560 15.10509474642979"}}, "geometry": {"type": "Point", "coordinates": [-88.89725924001085, 33.8464796395154]}}, {"type": "Feature", "properties": {"norad_id": 40799, "name": "COSMOS 2251 DEB", "group": "cosmos-2251-debris", "lat": -29.50495709403126, "lon": 95.7570331457133, "alt_km": 504.5164260198426, "timestamp": "2025-12-09T09:46:48.044272+00:00", "meta": {"OBJECT_NAME": "COSMOS 2251 DEB", "OBJECT_ID": "1993-036BWC", "EPOCH": "2025-12-08T14:39:46.353024", "MEAN_MOTION": 14.96605694, "ECCENTRICITY": 0.0118821, "INCLINATION": 73.9255, "RA_OF_ASC_NODE": 106.7691, "ARG_OF_PERICENTER": 349.6655, "MEAN_ANOMALY": 10.2086, "EPHEMERIS_TYPE": 0, "CLASSIFICATION_TYPE": "U", "NORAD_CAT_ID": 40799, "ELEMENT_SET_NO": 999, "REV_AT_EPOCH": 49915, "BSTAR": 0.00052701, "MEAN_MOTION_DOT": 6.894e-05, "MEAN_MOTION_DDOT": 0}, "tle": {"line1": "1 40799U 93036BWC 25342.61095316  .00006894  00000+0  52701-3 0  9991", "line2": "2 40799  73.9255 106.7691 0118821 349.6655  10.2086 14.96605694499156"}}, "geometry": {"type": "Point", "coordinates": [95.7570331457133, -29.50495709403126]}}, {"type": "Feature", "properties": {"norad_id": 40802, "name": "COSMOS 2251 DEB", "group": "cosmos-2251-debris", "lat": -60.432849065962145, "lon": 9.847623640665082, "alt_km": 600.7523332452965, "timestamp": "2025-12-09T09:46:48.044282+00:00", "meta": {"OBJECT_NAME": "COSMOS 2251 DEB", "OBJECT_ID": "1993-036BWF", "EPOCH": "2025-12-07T04:40:18.782112", "MEAN_MOTION": 14.77524625, "ECCENTRICITY": 0.00633068, "INCLINATION": 74.039, "RA_OF_ASC_NODE": 163.8903, "ARG_OF_PERICENTER": 263.7276, "MEAN_ANOMALY": 95.6686, "EPHEMERIS_TYPE": 0, "CLASSIFICATION_TYPE": "U", "NORAD_CAT_ID": 40802, "ELEMENT_SET_NO": 999, "REV_AT_EPOCH": 64327, "BSTAR": 0.0010813735, "MEAN_MOTION_DOT": 7.951e-05, "MEAN_MOTION_DDOT": 0}, "tle": {"line1": "1 40802U 93036BWF 25341.19466183  .00007951  00000+0  10814-2 0  9995", "line2": "2 40802  74.0390 163.8903 0063306 263.7276  95.6686 14.77524625643275"}}, "geometry": {"type": "Point", "coordinates": [9.847623640665082, -60.432849065962145]}}, {"type": "Feature", "properties": {"norad_id": 40803, "name": "COSMOS 2251 DEB", "group": "cosmos-2251-debris", "lat": 34.40868806168505, "lon": 69.50772301532702, "alt_km": 730.5921914357205, "timestamp": "2025-12-09T09:46:48.044293+00:00", "meta": {"OBJECT_NAME": "COSMOS 2251 DEB", "OBJECT_ID": "1993-036BWG", "EPOCH": "2025-12-05T22:55:29.451072", "MEAN_MOTION": 14.51792027, "ECCENTRICITY": 0.00362816, "INCLINATION": 74.0122, "RA_OF_ASC_NODE": 64.6912, "ARG_OF_PERICENTER": 281.8159, "MEAN_ANOMALY": 77.8934, "EPHEMERIS_TYPE": 0, "CLASSIFICATION_TYPE": "U", "NORAD_CAT_ID": 40803, "ELEMENT_SET_NO": 999, "REV_AT_EPOCH": 58654, "BSTAR": 0.00062935795, "MEAN_MOTION_DOT": 2.525e-05, "MEAN_MOTION_DDOT": 0}, "tle": {"line1": "1 40803U 93036BWG 25339.95520198  .00002525  00000+0  62936-3 0  9999", "line2": "2 40803  74.0122  64.6912 0036281 281.8159  77.8934 14.51792027586549"}}, "geometry": {"type": "Point", "coordinates": [69.50772301532702, 34.40868806168505]}}, {"type": "Feature", "properties": {"norad_id": 40808, "name": "COSMOS 2251 DEB", "group": "cosmos-2251-debris", "lat": 53.307315015732456, "lon": -50.67920746192173, "alt_km": 661.1565782530461, "timestamp": "2025-12-09T09:46:48.044304+00:00", "meta": {"OBJECT_NAME": "COSMOS 2251 DEB", "OBJECT_ID": "1993-036BWM", "EPOCH": "2025-12-07T11:32:50.781984", "MEAN_MOTION": 14.67333401, "ECCENTRICITY": 0.00098053, "INCLINATION": 74.0406, "RA_OF_ASC_NODE": 155.6207, "ARG_OF_PERICENTER": 192.7953, "MEAN_ANOMALY": 198.9627, "EPHEMERIS_TYPE": 0, "CLASSIFICATION_TYPE": "U", "NORAD_CAT_ID": 40808, "ELEMENT_SET_NO": 999, "REV_AT_EPOCH": 63542, "BSTAR": 0.0025472163, "MEAN_MOTION_DOT": 0.00014393, "MEAN_MOTION_DDOT": 0}, "tle": {"line1": "1 40808U 93036BWM 25341.48114331  .00014393  00000+0  25472-2 0  9992", "line2": "2 40808  74.0406 155.6207 0009805 192.7953 198.9627 14.67333401635421"}}, "geometry": {"type": "Point", "coordinates": [-50.67920746192173, 53.307315015732456]}}, {"type": "Feature", "properties": {"norad_id": 40810, "name": "COSMOS 2251 DEB", "group": "cosmos-2251-debris", "lat": 33.150282988456524, "lon": -109.69335571631541, "alt_km": 694.4354907106926, "timestamp": "2025-12-09T09:46:48.044314+00:00", "meta": {"OBJECT_NAME": "COSMOS 2251 DEB", "OBJECT_ID": "1993-036BWP", "EPOCH": "2025-12-08T16:39:16.874784", "MEAN_MOTION": 14.58674217, "ECCENTRICITY": 0.00186464, "INCLINATION": 74.0365, "RA_OF_ASC_NODE": 82.4401, "ARG_OF_PERICENTER": 234.2275, "MEAN_ANOMALY": 125.7157, "EPHEMERIS_TYPE": 0, "CLASSIFICATION_TYPE": "U", "NORAD_CAT_ID": 40810, "ELEMENT_SET_NO": 999, "REV_AT_EPOCH": 61624, "BSTAR": 0.0013703494, "MEAN_MOTION_DOT": 6.381e-05, "MEAN_MOTION_DDOT": 0}, "tle": {"line1": "1 40810U 93036BWP 25342.69394531  .00006381  00000+0  13703-2 0  9993", "line2": "2 40810  74.0365  82.4401 0018646 234.2275 125.7157 14.58674217616241"}}, "geometry": {"type": "Point", "coordinates": [-109.69335571631541, 33.150282988456524]}}]}